ONEWEB-0612             
1 54675U 22166AK  24004.23638151  .00000055  00000+0  10181-3 0  9996
2 54675  87.9229  62.1201 0001551  90.4610 269.6702 13.21824044 53672
ONEWEB-0615             
1 54676U 22166AL  24003.68758741  .00000063  00000+0  12209-3 0  9995
2 54676  87.9241  62.2527 0001538 101.5063 258.6244 13.21824599 53146
ONEWEB-0655             
1 54677U 22166AM  24004.11493534 -.00000283  00000+0 -71576-3 0  9999
2 54677  87.9236  62.1687 0001344 100.9094 259.2191 13.21825450 53661
ONEWEB-0659             
1 54678U 22166AN  24003.67810496 -.00000254  00000+0 -64661-3 0  9995
2 54678  87.9231  62.2656 0002090  99.1092 261.0278 13.21825488 53220
ONEWEB-0685             
1 54679U 22166AP  24003.67968690  .00000026  00000+0  31389-4 0  9993
2 54679  87.9241  62.2511 0000990 100.8763 259.2482 13.21827291 53112
ONEWEB-0712             
1 54680U 22166AQ  24003.61896497  .00004105  00000+0  10694-1 0  9999
2 54680  87.9052  47.0318 0001994 116.4327 243.7009 13.16632515 54216
ONEWEB-0714             
1 54681U 22166AR  24004.21586279 -.00000064  00000+0 -18616-3 0  9997
2 54681  87.9231  62.1293 0001476 101.3338 258.7962 13.21827711 53770
ONEWEB-0532             
1 55140U 23004A   24003.89715900  .00000017  00000+0  10440-4 0  9992
2 55140  87.9200 183.8696 0001811  59.8558 300.2752 13.17649856 49681
